NORAD_CAT_ID,OBJECT_NAME,OBJECT_TYPE,EPOCH,MEAN_MOTION,ECCENTRICITY,INCLINATION,RA_OF_ASC_NODE,ARG_OF_PERICENTER,MEAN_ANOMALY,BSTAR,MEAN_MOTION_DOT,MEAN_MOTION_DDOT,TLE_LINE0,TLE_LINE1,TLE_LINE2,SEMIMAJOR_AXIS,PERIOD,APOGEE,PERIGEE,DECAYED
55317.0,STARLINK-5265,PAYLOAD,2023-06-30 14:09:50,15.69919605,0.0003854,69.999,333.2676,272.1452,87.9302,-1.4843e-06,-3.92e-06,0.0,0 STARLINK-5265,1 55317U 23010BA  23181.59016977 -.00000392  00000-0 -14843-5 0  9997,2 55317  69.9990 333.2676 0003854 272.1452  87.9302 15.69919605 25948,6737.264,91.724,361.726,356.532,0.0
55317.0,STARLINK-5265,PAYLOAD,2023-07-01 17:41:22,15.69941349,0.0003823,69.9994,330.0432,273.219,86.8569,5.124e-05,5.957e-05,0.0,0 STARLINK-5265,1 55317U 23010BA  23182.73706132  .00005957  00000-0  51240-4 0  9994,2 55317  69.9994 330.0432 0003823 273.2190  86.8569 15.69941349 26128,6737.202,91.723,361.642,356.491,0.0
55317.0,STARLINK-5265,PAYLOAD,2023-07-01 19:13:07,15.69933628,0.0003744,69.9994,329.8629,271.497,88.5797,4.4399e-05,5.131e-05,0.0,0 STARLINK-5265,1 55317U 23010BA  23182.80078278  .00005131  00000-0  44399-4 0  9996,2 55317  69.9994 329.8629 0003744 271.4970  88.5797 15.69933628 26134,6737.224,91.724,361.611,356.566,0.0
55317.0,STARLINK-5265,PAYLOAD,2023-07-02 10:30:39,15.69925827,0.0003735,69.9997,328.0741,269.5592,90.5176,2.4948e-05,2.788e-05,0.0,0 STARLINK-5265,1 55317U 23010BA  23183.43795427  .00002788  00000-0  24948-4 0  9991,2 55317  69.9997 328.0741 0003735 269.5592  90.5176 15.69925827 26238,6737.246,91.724,361.628,356.595,0.0
55317.0,STARLINK-5265,PAYLOAD,2023-07-02 19:41:09,15.69937196,0.0003525,69.9996,326.9968,273.6648,86.4144,5.729e-05,6.685e-05,0.0,0 STARLINK-5265,1 55317U 23010BA  23183.82025084  .00006685  00000-0  57290-4 0  9995,2 55317  69.9996 326.9968 0003525 273.6648  86.4144 15.69937196 26297,6737.214,91.723,361.454,356.704,0.0
55317.0,STARLINK-5265,PAYLOAD,2023-07-03 12:30:26,15.69925162,0.0003401,69.9994,325.025,269.121,90.9596,3.9978e-06,2.68e-06,0.0,0 STARLINK-5265,1 55317U 23010BA  23184.52113782  .00000268  00000-0  39978-5 0  9991,2 55317  69.9994 325.0250 0003401 269.1210  90.9596 15.69925162 26401,6737.248,91.724,361.404,356.822,0.0
55317.0,STARLINK-5265,PAYLOAD,2023-07-04 16:01:58,15.69928097,0.0003714,69.9976,321.8017,269.649,90.4281,1.3012e-05,1.352e-05,0.0,0 STARLINK-5265,1 55317U 23010BA  23185.66803661  .00001352  00000-0  13012-4 0  9994,2 55317  69.9976 321.8017 0003714 269.6490  90.4281 15.69928097 26583,6737.24,91.724,361.607,356.603,0.0
55317.0,STARLINK-5265,PAYLOAD,2023-07-05 02:44:14,15.69916054,0.000358,69.9977,320.5477,269.4116,90.6669,5.9994e-06,5.08e-06,0.0,0 STARLINK-5265,1 55317U 23010BA  23186.11406233  .00000508  00000-0  59994-5 0  9991,2 55317  69.9977 320.5477 0003580 269.4116  90.6669 15.69916054 26654,6737.274,91.725,361.551,356.727,0.0
55317.0,STARLINK-5265,PAYLOAD,2023-07-05 14:58:15,15.69927454,0.000368,69.9979,319.113,263.9735,96.1041,1.1843e-05,1.212e-05,0.0,0 STARLINK-5265,1 55317U 23010BA  23186.62378902  .00001212  00000-0  11843-4 0  9991,2 55317  69.9979 319.1130 0003680 263.9735  96.1041 15.69927454 26733,6737.242,91.724,361.586,356.627,0.0
55317.0,STARLINK-5265,PAYLOAD,2023-07-05 21:05:16,15.69918753,0.0003603,69.9977,318.3979,272.1452,87.9331,2.7412e-07,-1.8e-06,0.0,0 STARLINK-5265,1 55317U 23010BA  23186.87866386 -.00000180  00000-0  27412-6 0  9991,2 55317  69.9977 318.3979 0003603 272.1452  87.9331 15.69918753 26772,6737.266,91.724,361.559,356.704,0.0
55317.0,STARLINK-5265,PAYLOAD,2023-07-07 17:28:50,15.68330323,0.0003086,69.9986,313.2098,269.2237,90.8604,-0.0014941,-0.00165182,0.0,0 STARLINK-5265,1 55317U 23010BA  23188.72836610 -.00165182  00000-0 -14941-2 0  9998,2 55317  69.9986 313.2098 0003086 269.2237  90.8604 15.68330323 27060,6741.815,91.817,365.76,361.599,0.0
55317.0,STARLINK-5265,PAYLOAD,2023-07-08 06:00:00,15.66769874,0.0003634,69.9999,311.7474,270.5098,154.0993,-0.0059521,-0.00587003,0.0,0 STARLINK-5265,1 55317U 23010BA  23189.25001157 -.00587003  00000-0 -59521-2 0  9990,2 55317  69.9999 311.7474 0003634 270.5098 154.0993 15.66769874 27142,6746.29,91.909,370.607,365.704,0.0
55317.0,STARLINK-5265,PAYLOAD,2023-07-08 22:00:00,15.65945002,0.0003377,69.9991,309.8829,272.9524,309.7314,-0.0071999,-0.00679173,0.0,0 STARLINK-5265,1 55317U 23010BA  23189.91667824 -.00679173  00000-0 -71999-2 0  9995,2 55317  69.9991 309.8829 0003377 272.9524 309.7314 15.65945002 27256,6748.659,91.957,372.803,368.245,0.0
55317.0,STARLINK-5265,PAYLOAD,2023-07-09 04:00:00,15.65546487,0.0003351,69.9992,309.1842,266.5354,284.9135,-0.0057642,-0.00543891,0.0,0 STARLINK-5265,1 55317U 23010BA  23190.16667824 -.00543891  00000-0 -57642-2 0  9990,2 55317  69.9992 309.1842 0003351 266.5354 284.9135 15.65546487 27290,6749.805,91.981,373.931,369.408,0.0
55317.0,STARLINK-5265,PAYLOAD,2023-07-09 14:00:01,15.6501741,0.0003344,69.9993,308.0206,271.1444,107.5611,-0.0063848,-0.00586803,0.0,0 STARLINK-5265,1 55317U 23010BA  23190.58334491 -.00586803  00000-0 -63848-2 0  9992,2 55317  69.9993 308.0206 0003344 271.1444 107.5611 15.65017410 27352,6751.326,92.012,375.448,370.933,0.0
55317.0,STARLINK-5265,PAYLOAD,2023-07-10 06:00:00,15.64178125,0.000318,69.9992,306.1612,266.6481,265.9517,-0.0069394,-0.00614731,0.0,0 STARLINK-5265,1 55317U 23010BA  23191.25001157 -.00614731  00000-0 -69394-2 0  9991,2 55317  69.9992 306.1612 0003180 266.6481 265.9517 15.64178125 27465,6753.74,92.061,377.753,373.458,0.0
55317.0,STARLINK-5265,PAYLOAD,2023-07-11 06:00:00,15.62873784,0.0003323,69.9987,303.3761,269.0757,130.4822,-0.0073223,-0.00616084,0.0,0 STARLINK-5265,1 55317U 23010BA  23192.25001157 -.00616084  00000-0 -73223-2 0  9991,2 55317  69.9987 303.3761 0003323 269.0757 130.4822 15.62873784 27618,6757.498,92.138,381.608,377.117,0.0
55317.0,STARLINK-5265,PAYLOAD,2023-07-12 06:00:00,15.6157297,0.0003403,69.999,300.5967,265.816,356.0045,-0.0077541,-0.00619883,0.0,0 STARLINK-5265,1 55317U 23010BA  23193.25001157 -.00619883  00000-0 -77541-2 0  9999,2 55317  69.9990 300.5967 0003403 265.8160 356.0045 15.61572970 27772,6761.25,92.215,385.416,380.814,0.0
55317.0,STARLINK-5265,PAYLOAD,2023-07-13 20:00:01,15.59519313,0.0003651,69.9989,296.2069,275.0603,239.0789,-0.0089048,-0.00655034,0.0,0 STARLINK-5265,1 55317U 23010BA  23194.83334491 -.00655034  00000-0 -89048-2 0  9997,2 55317  69.9989 296.2069 0003651 275.0603 239.0789 15.59519313 28027,6767.184,92.336,391.52,386.579,0.0
55317.0,STARLINK-5265,PAYLOAD,2023-07-14 14:00:01,15.58489962,0.0003674,69.999,294.1326,274.4752,127.7259,-0.0080019,-0.00571866,0.0,0 STARLINK-5265,1 55317U 23010BA  23195.58334491 -.00571866  00000-0 -80019-2 0  9999,2 55317  69.9990 294.1326 0003674 274.4752 127.7259 15.58489962 28137,6770.164,92.397,394.516,389.541,0.0
55317.0,STARLINK-5265,PAYLOAD,2023-07-15 06:00:02,15.57672475,0.0003322,69.9994,292.2912,265.7827,274.7294,-0.0093757,-0.00643885,0.0,0 STARLINK-5265,1 55317U 23010BA  23196.25002315 -.00643885  00000-0 -93757-2 0  9995,2 55317  69.9994 292.2912 0003322 265.7827 274.7294 15.57672475 28243,6772.532,92.446,396.647,392.147,0.0
55317.0,STARLINK-5265,PAYLOAD,2023-07-16 06:00:00,15.56370261,0.0003338,69.9992,289.5333,266.9841,116.9523,-0.0099378,-0.00649582,0.0,0 STARLINK-5265,1 55317U 23010BA  23197.25001157 -.00649582  00000-0 -99378-2 0  9994,2 55317  69.9992 289.5333 0003338 266.9841 116.9523 15.56370261 28398,6776.309,92.523,400.436,395.912,0.0
55317.0,STARLINK-5265,PAYLOAD,2023-07-17 02:00:01,15.55219678,0.0003264,69.9991,287.2394,269.1592,100.7868,-0.0085768,-0.00544287,0.0,0 STARLINK-5265,1 55317U 23010BA  23198.08334491 -.00544287  00000-0 -85768-2 0  9990,2 55317  69.9991 287.2394 0003264 269.1592 100.7868 15.55219678 28526,6779.651,92.591,403.729,399.303,0.0
55317.0,STARLINK-5265,PAYLOAD,2023-07-17 14:00:01,15.5457955,0.0003214,69.9989,285.865,274.1662,13.873,-0.0093077,-0.00574743,0.0,0 STARLINK-5265,1 55317U 23010BA  23198.58335648 -.00574743  00000-0 -93077-2 0  9992,2 55317  69.9989 285.8650 0003214 274.1662  13.8730 15.54579550 28609,6781.512,92.63,405.557,401.198,0.0
55317.0,STARLINK-5265,PAYLOAD,2023-07-18 06:00:00,15.5376596,0.0003217,69.9989,284.0342,267.5931,149.24,-0.011074,-0.00656976,0.0,0 STARLINK-5265,1 55317U 23010BA  23199.25001157 -.00656976  00000-0 -11074-1 0  9997,2 55317  69.9989 284.0342 0003217 267.5931 149.2400 15.53765960 28706,6783.879,92.678,407.927,403.562,0.0
55317.0,STARLINK-5265,PAYLOAD,2023-07-18 22:00:00,15.52858442,0.0003154,69.9984,282.2057,270.4524,273.1923,-0.010677,-0.0061601,0.0,0 STARLINK-5265,1 55317U 23010BA  23199.91667824 -.00616010  00000-0 -10677-1 0  9992,2 55317  69.9984 282.2057 0003154 270.4524 273.1923 15.52858442 28811,6786.522,92.732,410.527,406.247,0.0
55317.0,STARLINK-5265,PAYLOAD,2023-07-20 06:00:00,15.51252353,0.000323,69.9988,278.5564,269.2107,161.7618,-0.0006001,-0.00035292,0.0,0 STARLINK-5265,1 55317U 23010BA  23201.25001157 -.00035292  00000-0 -60010-3 0  9999,2 55317  69.9988 278.5564 0003230 269.2107 161.7618 15.51252353 29018,6791.206,92.828,415.264,410.877,0.0
55317.0,STARLINK-5265,PAYLOAD,2023-07-21 06:00:00,15.51252717,0.0003365,69.9998,275.8222,268.6306,345.0852,-0.00065062,-0.00038237,0.0,0 STARLINK-5265,1 55317U 23010BA  23202.25001157 -.00038237  00000-0 -65062-3 0  9994,2 55317  69.9998 275.8222 0003365 268.6306 345.0852 15.51252717 29171,6791.204,92.828,415.355,410.784,0.0
55317.0,STARLINK-5265,PAYLOAD,2023-07-21 22:00:00,15.51216973,0.0003328,69.9999,273.9993,270.7102,104.8574,-0.00022586,-0.00013406,0.0,0 STARLINK-5265,1 55317U 23010BA  23202.91667824 -.00013406  00000-0 -22586-3 0  9991,2 55317  69.9999 273.9993 0003328 270.7102 104.8574 15.51216973 29270,6791.309,92.83,415.434,410.914,0.0
55317.0,STARLINK-5265,PAYLOAD,2023-07-24 14:00:01,15.48883855,0.0003193,70.0,266.7168,276.0314,219.3816,-0.011525,-0.00579655,0.0,0 STARLINK-5265,1 55317U 23010BA  23205.58334491 -.00579655  00000-0 -11525-1 0  9990,2 55317  70.0000 266.7168 0003193 276.0314 219.3816 15.48883855  2260,6798.127,92.97,422.163,417.821,0.0
